*******************************************************************************
 Revised: July 31, 2013             Moon / (Earth)                          301
 
 GEOPHYSICAL DATA (updated 2018-Aug-15):
  Vol. mean radius, km  = 1737.53+-0.03    Mass, x10^22 kg       =    7.349
  Radius (gravity), km  = 1738.0           Surface emissivity    =    0.92
  Radius (IAU), km      = 1737.4           GM, km^3/s^2          = 4902.800066
  Density, g/cm^3       =    3.3437        GM 1-sigma, km^3/s^2  =  +-0.0001  
  V(1,0)                =   +0.21          Surface accel., m/s^2 =    1.62
  Earth/Moon mass ratio = 81.3005690769    Farside crust. thick. = ~80 - 90 km
  Mean crustal density  = 2.97+-.07 g/cm^3 Nearside crust. thick.= 58+-8 km 
  Heat flow, Apollo 15  = 3.1+-.6 mW/m^2   Mean angular diameter = 31'05.2"
  Heat flow, Apollo 17  = 2.2+-.5 mW/m^2   Sid. rot. rate, rad/s = 0.0000026617
  Geometric Albedo      = 0.12             Mean solar day        = 29.5306 d
  Obliquity to orbit    = 6.67 deg         Orbit period          = 27.321582 d
  Semi-major axis, a    = 384400 km        Eccentricity          = 0.05490
  Mean motion, rad/s    = 2.6616995x10^-6  Inclination           = 5.145 deg
  Apsidal period        = 3231.50 d        Nodal period          = 6798.38 d
                                 Perihelion  Aphelion    Mean
  Solar Constant (W/m^2)         1414+-7     1323+-7     1368+-7
  Maximum Planetary IR (W/m^2)   1314        1226        1268
  Minimum Planetary IR (W/m^2)      5.2         5.2         5.2
********************************************************************************


*******************************************************************************
Ephemeris / WWW_USER Wed May 21 10:39:33 2025 Pasadena, USA      / Horizons
*******************************************************************************
Target body name: Moon (301)                      {source: DE441}
Center body name: Solar System Barycenter (0)     {source: DE441}
Center-site name: BODY CENTER
*******************************************************************************
Start time      : A.D. 1755-Jan-01 00:00:00.0000 TDB
Stop  time      : A.D. 1755-Jan-31 00:00:00.0000 TDB
Step-size       : 1440 minutes
*******************************************************************************
Center geodetic : 0.0, 0.0, 0.0                   {E-lon(deg),Lat(deg),Alt(km)}
Center cylindric: 0.0, 0.0, 0.0                   {E-lon(deg),Dxy(km),Dz(km)}
Center radii    : (undefined)
Output units    : KM-S
Calendar mode   : Mixed Julian/Gregorian
Output type     : GEOMETRIC cartesian states
Output format   : 3 (position, velocity, LT, range, range-rate)
Reference frame : Ecliptic of J2000.0
*******************************************************************************
JDTDB
   X     Y     Z
   VX    VY    VZ
   LT    RG    RR
*******************************************************************************
$$SOE
2362084.500000000 = A.D. 1755-Jan-25 00:00:00.0000 TDB 
 X =-9.054311288572389E+07 Y = 1.161790049978470E+08 Z = 1.289484885033965E+04
 VX=-2.489565100269728E+01 VY=-1.856467506347710E+01 VZ=-1.488053256845667E-02
 LT= 4.913209652805996E+02 RG= 1.472943198484036E+08 RR= 6.606097936133732E-01
2362085.500000000 = A.D. 1755-Jan-26 00:00:00.0000 TDB 
 X =-9.267938648709281E+07 Y = 1.145472748474548E+08 Z = 1.248832027109712E+04
 VX=-2.454494334782537E+01 VY=-1.920598470424918E+01 VZ= 5.548308911073718E-03
 LT= 4.914899932679685E+02 RG= 1.473449931642077E+08 RR= 5.077685361791764E-01
2362086.500000000 = A.D. 1755-Jan-27 00:00:00.0000 TDB 
 X =-9.478268676246448E+07 Y = 1.128605513512828E+08 Z = 1.385034532140940E+04
 VX=-2.413211775088564E+01 VY=-1.983540749679223E+01 VZ= 2.585771238935930E-02
 LT= 4.916112623773636E+02 RG= 1.473813487285927E+08 RR= 3.302472795227306E-01
2362087.500000000 = A.D. 1755-Jan-28 00:00:00.0000 TDB 
 X =-9.684763421880522E+07 Y = 1.111204704336221E+08 Z = 1.691620485934615E+04
 VX=-2.365756344533915E+01 VY=-2.043862864017294E+01 VZ= 4.476386950402222E-02
 LT= 4.916787206427500E+02 RG= 1.474015722077854E+08 RR= 1.358857879400142E-01
2362088.500000000 = A.D. 1755-Jan-29 00:00:00.0000 TDB 
 X =-9.886907280271181E+07 Y = 1.093299403332821E+08 Z = 2.150573606295884E+04
 VX=-2.312620170223833E+01 VY=-2.100078155825808E+01 VZ= 6.090171396883814E-02
 LT= 4.916889760889219E+02 RG= 1.474046467132011E+08 RR=-6.476570070572933E-02
2362089.500000000 = A.D. 1755-Jan-30 00:00:00.0000 TDB 
 X =-1.008424856610115E+08 Y = 1.074931115537868E+08 Z = 2.732315221547335E+04
 VX=-2.254789852512511E+01 VY=-2.150831971357421E+01 VZ= 7.299080091659427E-02
 LT= 4.916419823861950E+02 RG= 1.473905583555501E+08 RR=-2.592301887407132E-01
2362090.500000000 = A.D. 1755-Jan-31 00:00:00.0000 TDB 
 X =-1.027644045332571E+08 Y = 1.056151741997723E+08 Z = 3.397246058478206E+04
 VX=-2.193687339591824E+01 VY=-2.195104221169155E+01 VZ= 8.002188586402870E-02
 LT= 4.915414022148947E+02 RG= 1.473604051787699E+08 RR=-4.345176479619928E-01
